[
  {
    "OBJECT_NAME": "GLOBAL-34",
    "OBJECT_ID": "2026-043A",
    "EPOCH": "2026-06-11T13:15:14.209000",
    "MEAN_MOTION": 15.32530244,
    "ECCENTRICITY": 0.0004746,
    "INCLINATION": 42.0204,
    "RA_OF_ASC_NODE": 253.3537,
    "ARG_OF_PERICENTER": 251.9616,
    "MEAN_ANOMALY": 108.0705,
    "EPHEMERIS_TYPE": 0,
    "CLASSIFICATION_TYPE": "U",
    "NORAD_CAT_ID": 68098,
    "ELEMENT_SET_NO": 999,
    "REV_AT_EPOCH": 1496,
    "BSTAR": 0.00028670000000000003,
    "MEAN_MOTION_DOT": 0.00008961,
    "MEAN_MOTION_DDOT": 0
  }
]
