GLOBAL-34               
1 68098U 26043A   26162.55224779  .00008961  00000+0  28670-3 0  9993
2 68098  42.0204 253.3537 0004746 251.9616 108.0705 15.32530244 14964
